start=new Date('2021-11-09T00:00:00.000Z').valueOf();
sats=[{"OBJECT_ID":"2020-055G","MEAN_MOTION_DDOT":"0.0000000000000","CENTER_NAME":"EARTH","MEAN_ELEMENT_THEORY":"SGP4","GP_ID":"189276403","MEAN_MOTION":"15.06416216","ARG_OF_PERICENTER":"80.3650","REV_AT_EPOCH":"6991","REF_FRAME":"TEME","SEMIMAJOR_AXIS":"6925.299","PERIAPSIS":"546.294","COUNTRY_CODE":"US","TIME_SYSTEM":"UTC","EPOCH":"2021-11-08T13:28:41.071872","NORAD_CAT_ID":"46033","APOAPSIS":"548.034","EPHEMERIS_TYPE":"0","INCLINATION":"53.0557","PERIOD":"95.591","OBJECT_NAME":"STARLINK-1556","TLE_LINE2":"2 46033  53.0557  29.0709 0001256  80.3650 279.7481 15.06416216 69911","RCS_SIZE":"LARGE","RA_OF_ASC_NODE":"29.0709","SITE":"AFETR","BSTAR":"0.00107350000000","ECCENTRICITY":"0.00012560","FILE":"3209341","MEAN_MOTION_DOT":"0.00015751","DECAY_DATE":null,"OBJECT_TYPE":"PAYLOAD","ELEMENT_SET_NO":"999","LAUNCH_DATE":"2020-08-07","TLE_LINE1":"1 46033U 20055G   21312.56158648  .00015751  00000-0  10735-2 0  9997","MEAN_ANOMALY":"279.7481","CLASSIFICATION_TYPE":"U"},{"SITE":"AFETR","BSTAR":"0.00174550000000","MEAN_MOTION_DOT":"0.00025834","ECCENTRICITY":"0.00015040","FILE":"3209342","DECAY_DATE":null,"OBJECT_TYPE":"PAYLOAD","ELEMENT_SET_NO":"999","TLE_LINE1":"1 46034U 20055H   21312.49894230  .00025834  00000-0  17455-2 0  9993","LAUNCH_DATE":"2020-08-07","MEAN_ANOMALY":"278.8782","CLASSIFICATION_TYPE":"U","MEAN_ELEMENT_THEORY":"SGP4","GP_ID":"189276411","CENTER_NAME":"EARTH","MEAN_MOTION_DDOT":"0.0000000000000","OBJECT_ID":"2020-055H","ARG_OF_PERICENTER":"81.2377","REV_AT_EPOCH":"6990","MEAN_MOTION":"15.06429811","REF_FRAME":"TEME","SEMIMAJOR_AXIS":"6925.257","EPOCH":"2021-11-08T11:58:28.614720","TIME_SYSTEM":"UTC","NORAD_CAT_ID":"46034","PERIAPSIS":"546.081","COUNTRY_CODE":"US","INCLINATION":"53.0550","EPHEMERIS_TYPE":"0","APOAPSIS":"548.164","TLE_LINE2":"2 46034  53.0550  29.3607 0001504  81.2377 278.8782 15.06429811 69905","OBJECT_NAME":"STARLINK-1557","PERIOD":"95.590","RA_OF_ASC_NODE":"29.3607","RCS_SIZE":"LARGE"},{"MEAN_ANOMALY":"293.9746","CLASSIFICATION_TYPE":"U","ELEMENT_SET_NO":"999","TLE_LINE1":"1 46035U 20055J   21312.90439423  .00012996  00000-0  88922-3 0  9992","LAUNCH_DATE":"2020-08-07","DECAY_DATE":null,"OBJECT_TYPE":"PAYLOAD","BSTAR":"0.00088922000000","SITE":"AFETR","MEAN_MOTION_DOT":"0.00012996","FILE":"3209620","ECCENTRICITY":"0.00014550","TLE_LINE2":"2 46035  53.0544  27.5309 0001455  66.1395 293.9746 15.06422299 70481","PERIOD":"95.591","OBJECT_NAME":"STARLINK-1558","RA_OF_ASC_NODE":"27.5309","RCS_SIZE":"LARGE","NORAD_CAT_ID":"46035","TIME_SYSTEM":"UTC","EPOCH":"2021-11-08T21:42:19.661472","PERIAPSIS":"546.138","COUNTRY_CODE":"US","APOAPSIS":"548.153","INCLINATION":"53.0544","EPHEMERIS_TYPE":"0","REF_FRAME":"TEME","SEMIMAJOR_AXIS":"6925.280","MEAN_MOTION_DDOT":"0.0000000000000","CENTER_NAME":"EARTH","MEAN_ELEMENT_THEORY":"SGP4","GP_ID":"189300230","OBJECT_ID":"2020-055J","REV_AT_EPOCH":"7048","ARG_OF_PERICENTER":"66.1395","MEAN_MOTION":"15.06422299"},{"MEAN_ELEMENT_THEORY":"SGP4","GP_ID":"189275945","CENTER_NAME":"EARTH","MEAN_MOTION_DDOT":"0.0000000000000","OBJECT_ID":"2020-055K","REV_AT_EPOCH":"6990","MEAN_MOTION":"15.06400313","ARG_OF_PERICENTER":"84.4114","REF_FRAME":"TEME","SEMIMAJOR_AXIS":"6925.348","EPOCH":"2021-11-08T11:47:52.281312","TIME_SYSTEM":"UTC","NORAD_CAT_ID":"46036","COUNTRY_CODE":"US","PERIAPSIS":"546.095","EPHEMERIS_TYPE":"0","INCLINATION":"53.0539","APOAPSIS":"548.330","TLE_LINE2":"2 46036  53.0539  29.3824 0001614  84.4114 275.7059 15.06400313 69900","OBJECT_NAME":"STARLINK-1560","PERIOD":"95.592","RA_OF_ASC_NODE":"29.3824","RCS_SIZE":"LARGE","BSTAR":"0.00082958000000","SITE":"AFETR","MEAN_MOTION_DOT":"0.00012097","ECCENTRICITY":"0.00016140","FILE":"3209343","DECAY_DATE":null,"OBJECT_TYPE":"PAYLOAD","ELEMENT_SET_NO":"999","TLE_LINE1":"1 46036U 20055K   21312.49157733  .00012097  00000-0  82958-3 0  9993","LAUNCH_DATE":"2020-08-07","MEAN_ANOMALY":"275.7059","CLASSIFICATION_TYPE":"U"},{"CLASSIFICATION_TYPE":"U","MEAN_ANOMALY":"277.7792","TLE_LINE1":"1 46037U 20055L   21312.55423673  .00011100  00000-0  76312-3 0  9991","LAUNCH_DATE":"2020-08-07","ELEMENT_SET_NO":"999","OBJECT_TYPE":"PAYLOAD","DECAY_DATE":null,"MEAN_MOTION_DOT":"0.00011100","ECCENTRICITY":"0.00012070","FILE":"3209620","BSTAR":"0.00076312000000","SITE":"AFETR","RA_OF_ASC_NODE":"29.1100","RCS_SIZE":"LARGE","TLE_LINE2":"2 46037  53.0556  29.1100 0001207  82.3334 277.7792 15.06388628 70423","OBJECT_NAME":"STARLINK-1565","PERIOD":"95.593","INCLINATION":"53.0556","EPHEMERIS_TYPE":"0","APOAPSIS":"548.084","EPOCH":"2021-11-08T13:18:06.053472","TIME_SYSTEM":"UTC","NORAD_CAT_ID":"46037","PERIAPSIS":"546.413","COUNTRY_CODE":"US","SEMIMAJOR_AXIS":"6925.383","REF_FRAME":"TEME","MEAN_MOTION":"15.06388628","ARG_OF_PERICENTER":"82.3334","REV_AT_EPOCH":"7042","MEAN_ELEMENT_THEORY":"SGP4","GP_ID":"189301232","CENTER_NAME":"EARTH","MEAN_MOTION_DDOT":"0.0000000000000","OBJECT_ID":"2020-055L"},{"LAUNCH_DATE":"2020-08-07","TLE_LINE1":"1 46038U 20055M   21312.90070396  .00014099  00000-0  96304-3 0  9994","ELEMENT_SET_NO":"999","CLASSIFICATION_TYPE":"U","MEAN_ANOMALY":"293.8092","FILE":"3209620","ECCENTRICITY":"0.00014170","MEAN_MOTION_DOT":"0.00014099","SITE":"AFETR","BSTAR":"0.00096304000000","OBJECT_TYPE":"PAYLOAD","DECAY_DATE":null,"INCLINATION":"53.0551","EPHEMERIS_TYPE":"0","APOAPSIS":"548.142","PERIAPSIS":"546.179","COUNTRY_CODE":"US","TIME_SYSTEM":"UTC","EPOCH":"2021-11-08T21:37:00.822144","NORAD_CAT_ID":"46038","RCS_SIZE":"LARGE","RA_OF_ASC_NODE":"27.5558","OBJECT_NAME":"STARLINK-1567","PERIOD":"95.591","TLE_LINE2":"2 46038  53.0551  27.5558 0001417  66.3045 293.8092 15.06417216 70475","MEAN_MOTION":"15.06417216","REV_AT_EPOCH":"7047","ARG_OF_PERICENTER":"66.3045","OBJECT_ID":"2020-055M","MEAN_ELEMENT_THEORY":"SGP4","GP_ID":"189301982","CENTER_NAME":"EARTH","MEAN_MOTION_DDOT":"0.0000000000000","SEMIMAJOR_AXIS":"6925.296","REF_FRAME":"TEME"},{"TIME_SYSTEM":"UTC","EPOCH":"2021-11-08T21:47:38.992416","NORAD_CAT_ID":"46039","COUNTRY_CODE":"US","PERIAPSIS":"546.342","APOAPSIS":"548.076","EPHEMERIS_TYPE":"0","INCLINATION":"53.0552","TLE_LINE2":"2 46039  53.0552  27.5238 0001252  77.5691 282.5438 15.06401434 70474","PERIOD":"95.592","OBJECT_NAME":"STARLINK-1569","RA_OF_ASC_NODE":"27.5238","RCS_SIZE":"LARGE","MEAN_MOTION_DDOT":"0.0000000000000","CENTER_NAME":"EARTH","GP_ID":"189300730","MEAN_ELEMENT_THEORY":"SGP4","OBJECT_ID":"2020-055N","MEAN_MOTION":"15.06401434","ARG_OF_PERICENTER":"77.5691","REV_AT_EPOCH":"7047","REF_FRAME":"TEME","SEMIMAJOR_AXIS":"6925.344","ELEMENT_SET_NO":"999","TLE_LINE1":"1 46039U 20055N   21312.90809019  .00011112  00000-0  76368-3 0  9998","LAUNCH_DATE":"2020-08-07","MEAN_ANOMALY":"282.5438","CLASSIFICATION_TYPE":"U","BSTAR":"0.00076368000000","SITE":"AFETR","MEAN_MOTION_DOT":"0.00011112","FILE":"3209620","ECCENTRICITY":"0.00012520","DECAY_DATE":null,"OBJECT_TYPE":"PAYLOAD"},{"REF_FRAME":"TEME","SEMIMAJOR_AXIS":"6925.311","OBJECT_ID":"2020-055P","GP_ID":"189278168","MEAN_ELEMENT_THEORY":"SGP4","CENTER_NAME":"EARTH","MEAN_MOTION_DDOT":"0.0000000000000","ARG_OF_PERICENTER":"80.6461","MEAN_MOTION":"15.06412405","REV_AT_EPOCH":"6990","OBJECT_NAME":"STARLINK-1576","PERIOD":"95.591","TLE_LINE2":"2 46040  53.0553  29.4778 0001560  80.6461 279.4704 15.06412405 69906","RCS_SIZE":"LARGE","RA_OF_ASC_NODE":"29.4778","PERIAPSIS":"546.095","COUNTRY_CODE":"US","NORAD_CAT_ID":"46040","TIME_SYSTEM":"UTC","EPOCH":"2021-11-08T11:21:19.540512","INCLINATION":"53.0553","EPHEMERIS_TYPE":"0","APOAPSIS":"548.256","DECAY_DATE":null,"OBJECT_TYPE":"PAYLOAD","SITE":"AFETR","BSTAR":"0.00157080000000","FILE":"3209467","ECCENTRICITY":"0.00015600","MEAN_MOTION_DOT":"0.00023201","MEAN_ANOMALY":"279.4704","CLASSIFICATION_TYPE":"U","ELEMENT_SET_NO":"999","LAUNCH_DATE":"2020-08-07","TLE_LINE1":"1 46040U 20055P   21312.47314283  .00023201  00000-0  15708-2 0  9998"},{"LAUNCH_DATE":"2020-08-07","TLE_LINE1":"1 46041U 20055Q   21312.74126932  .00009217  00000-0  63668-3 0  9991","ELEMENT_SET_NO":"999","CLASSIFICATION_TYPE":"U","MEAN_ANOMALY":"278.1971","ECCENTRICITY":"0.00014150","FILE":"3209620","MEAN_MOTION_DOT":"0.00009217","SITE":"AFETR","BSTAR":"0.00063668000000","OBJECT_TYPE":"PAYLOAD","DECAY_DATE":null,"APOAPSIS":"548.168","EPHEMERIS_TYPE":"0","INCLINATION":"53.0550","COUNTRY_CODE":"US","PERIAPSIS":"546.209","TIME_SYSTEM":"UTC","NORAD_CAT_ID":"46041","EPOCH":"2021-11-08T17:47:25.669248","RCS_SIZE":"LARGE","RA_OF_ASC_NODE":"28.2728","PERIOD":"95.592","OBJECT_NAME":"STARLINK-1580","TLE_LINE2":"2 46041  53.0550  28.2728 0001415  81.9179 278.1971 15.06408157 70425","MEAN_MOTION":"15.06408157","ARG_OF_PERICENTER":"81.9179","REV_AT_EPOCH":"7042","OBJECT_ID":"2020-055Q","CENTER_NAME":"EARTH","MEAN_MOTION_DDOT":"0.0000000000000","MEAN_ELEMENT_THEORY":"SGP4","GP_ID":"189301732","SEMIMAJOR_AXIS":"6925.324","REF_FRAME":"TEME"},{"DECAY_DATE":null,"OBJECT_TYPE":"PAYLOAD","BSTAR":"0.00075089000000","SITE":"AFETR","FILE":"3209238","ECCENTRICITY":"0.00012000","MEAN_MOTION_DOT":"0.00010923","MEAN_ANOMALY":"284.7149","CLASSIFICATION_TYPE":"U","ELEMENT_SET_NO":"999","LAUNCH_DATE":"2020-08-07","TLE_LINE1":"1 46042U 20055R   21312.52474761  .00010923  00000-0  75089-3 0  9990","REF_FRAME":"TEME","SEMIMAJOR_AXIS":"6925.324","OBJECT_ID":"2020-055R","MEAN_ELEMENT_THEORY":"SGP4","GP_ID":"189268994","CENTER_NAME":"EARTH","MEAN_MOTION_DDOT":"0.0000000000000","MEAN_MOTION":"15.06408104","ARG_OF_PERICENTER":"75.3973","REV_AT_EPOCH":"7038","OBJECT_NAME":"STARLINK-1581","PERIOD":"95.592","TLE_LINE2":"2 46042  53.0555  29.2417 0001200  75.3973 284.7149 15.06408104 70385","RCS_SIZE":"LARGE","RA_OF_ASC_NODE":"29.2417","PERIAPSIS":"546.358","COUNTRY_CODE":"US","EPOCH":"2021-11-08T12:35:38.193504","TIME_SYSTEM":"UTC","NORAD_CAT_ID":"46042","INCLINATION":"53.0555","EPHEMERIS_TYPE":"0","APOAPSIS":"548.020"}];
